[
    {
        "Altitude(m)": 714137.3259233583,
        "Argument of Periapsis(deg)": 0.006834072711976239,
        "Eccentricity": 0.0,
        "Inclination(deg)": 45.0,
        "Latitude(deg)": -36.07313885945356,
        "Longitude(deg)": 90.98257401246654,
        "Mean Anomaly(deg)": -123.98917001151149,
        "RAAN(deg)": 324.99354883512507,
        "Satellite Name": "Constellation 1 1444",
        "Satellite Number": 1444,
        "Semi-Major Axis(m)": 7083131.272910544,
        "Time(s)": 114
    },
    {
        "Altitude(m)": 714149.4147434582,
        "Argument of Periapsis(deg)": 0.006894020718221645,
        "Eccentricity": 0.0,
        "Inclination(deg)": 45.0,
        "Latitude(deg)": -36.10273876034852,
        "Longitude(deg)": 91.04379390874301,
        "Mean Anomaly(deg)": -123.92846887126159,
        "RAAN(deg)": 324.9934922459595,
        "Satellite Name": "Constellation 1 1444",
        "Satellite Number": 1444,
        "Semi-Major Axis(m)": 7083131.272910544,
        "Time(s)": 115
    },
    {
        "Altitude(m)": 714161.490802641,
        "Argument of Periapsis(deg)": 0.006953968724467052,
        "Eccentricity": 0.0,
        "Inclination(deg)": 45.0,
        "Latitude(deg)": -36.13230282813491,
        "Longitude(deg)": 91.10506265552338,
        "Mean Anomaly(deg)": -123.86776773101165,
        "RAAN(deg)": 324.9934356567939,
        "Satellite Name": "Constellation 1 1444",
        "Satellite Number": 1444,
        "Semi-Major Axis(m)": 7083131.272910544,
        "Time(s)": 116
    },
    {
        "Altitude(m)": 714173.5540573624,
        "Argument of Periapsis(deg)": 0.007013916730712457,
        "Eccentricity": 0.0,
        "Inclination(deg)": 45.0,
        "Latitude(deg)": -36.161830998275086,
        "Longitude(deg)": 91.16638028331863,
        "Mean Anomaly(deg)": -123.80706659076178,
        "RAAN(deg)": 324.9933790676284,
        "Satellite Name": "Constellation 1 1444",
        "Satellite Number": 1444,
        "Semi-Major Axis(m)": 7083131.272910544,
        "Time(s)": 117
    },
    {
        "Altitude(m)": 714185.6044641273,
        "Argument of Periapsis(deg)": 0.007073864736957864,
        "Eccentricity": 0.0,
        "Inclination(deg)": 45.0,
        "Latitude(deg)": -36.19132320617659,
        "Longitude(deg)": 91.22774682239344,
        "Mean Anomaly(deg)": -123.74636545051195,
        "RAAN(deg)": 324.9933224784628,
        "Satellite Name": "Constellation 1 1444",
        "Satellite Number": 1444,
        "Semi-Major Axis(m)": 7083131.272910544,
        "Time(s)": 118
    },
    {
        "Altitude(m)": 714197.6419794912,
        "Argument of Periapsis(deg)": 0.0071338127432032696,
        "Eccentricity": 0.0,
        "Inclination(deg)": 45.0,
        "Latitude(deg)": -36.22077938719244,
        "Longitude(deg)": 91.28916213466724,
        "Mean Anomaly(deg)": -123.685664310262,
        "RAAN(deg)": 324.9932658892972,
        "Satellite Name": "Constellation 1 1444",
        "Satellite Number": 1444,
        "Semi-Major Axis(m)": 7083131.272910544,
        "Time(s)": 119
    },
    {
        "Altitude(m)": 714209.66656004,
        "Argument of Periapsis(deg)": 0.007193760749448674,
        "Eccentricity": 0.0,
        "Inclination(deg)": 45.0,
        "Latitude(deg)": -36.25019947662103,
        "Longitude(deg)": 91.35062658610036,
        "Mean Anomaly(deg)": -123.62496317001208,
        "RAAN(deg)": 324.99320930013164,
        "Satellite Name": "Constellation 1 1444",
        "Satellite Number": 1444,
        "Semi-Major Axis(m)": 7083131.272910544,
        "Time(s)": 120
    },
    {
        "Altitude(m)": 714221.6781624091,
        "Argument of Periapsis(deg)": 0.007253708755694079,
        "Eccentricity": 0.0,
        "Inclination(deg)": 45.0,
        "Latitude(deg)": -36.2795834097068,
        "Longitude(deg)": 91.41214003811194,
        "Mean Anomaly(deg)": -123.56426202976223,
        "RAAN(deg)": 324.99315271096606,
        "Satellite Name": "Constellation 1 1444",
        "Satellite Number": 1444,
        "Semi-Major Axis(m)": 7083131.272910544,
        "Time(s)": 121
    },
    {
        "Altitude(m)": 714233.6767432629,
        "Argument of Periapsis(deg)": 0.0073136567619394854,
        "Eccentricity": 0.0,
        "Inclination(deg)": 45.0,
        "Latitude(deg)": -36.30893112164038,
        "Longitude(deg)": 91.47370251996581,
        "Mean Anomaly(deg)": -123.50356088951227,
        "RAAN(deg)": 324.99309612180053,
        "Satellite Name": "Constellation 1 1444",
        "Satellite Number": 1444,
        "Semi-Major Axis(m)": 7083131.272910544,
        "Time(s)": 122
    },
    {
        "Altitude(m)": 714245.6622593263,
        "Argument of Periapsis(deg)": 0.0073736047681848904,
        "Eccentricity": 0.0,
        "Inclination(deg)": 45.0,
        "Latitude(deg)": -36.338242547558664,
        "Longitude(deg)": 91.53531406067219,
        "Mean Anomaly(deg)": -123.44285974926234,
        "RAAN(deg)": 324.99303953263495,
        "Satellite Name": "Constellation 1 1444",
        "Satellite Number": 1444,
        "Semi-Major Axis(m)": 7083131.272910544,
        "Time(s)": 123
    },
    {
        "Altitude(m)": 714257.634667358,
        "Argument of Periapsis(deg)": 0.007433552774430298,
        "Eccentricity": 0.0,
        "Inclination(deg)": 45.0,
        "Latitude(deg)": -36.3675176225453,
        "Longitude(deg)": 91.59697468898648,
        "Mean Anomaly(deg)": -123.38215860901246,
        "RAAN(deg)": 324.99298294346937,
        "Satellite Name": "Constellation 1 1444",
        "Satellite Number": 1444,
        "Semi-Major Axis(m)": 7083131.272910544,
        "Time(s)": 124
    },
    {
        "Altitude(m)": 714269.5939241577,
        "Argument of Periapsis(deg)": 0.007493500780675703,
        "Eccentricity": 0.0,
        "Inclination(deg)": 45.0,
        "Latitude(deg)": -36.39675628163086,
        "Longitude(deg)": 91.65868443340796,
        "Mean Anomaly(deg)": -123.32145746876265,
        "RAAN(deg)": 324.9929263543038,
        "Satellite Name": "Constellation 1 1444",
        "Satellite Number": 1444,
        "Semi-Major Axis(m)": 7083131.272910544,
        "Time(s)": 125
    },
    {
        "Altitude(m)": 714281.5399865676,
        "Argument of Periapsis(deg)": 0.007553448786921108,
        "Eccentricity": 0.0,
        "Inclination(deg)": 45.0,
        "Latitude(deg)": -36.42595845979326,
        "Longitude(deg)": 91.72044315408186,
        "Mean Anomaly(deg)": -123.26075632851263,
        "RAAN(deg)": 324.9928697651382,
        "Satellite Name": "Constellation 1 1444",
        "Satellite Number": 1444,
        "Semi-Major Axis(m)": 7083131.272910544,
        "Time(s)": 126
    },
    {
        "Altitude(m)": 714293.4728114784,
        "Argument of Periapsis(deg)": 0.007613396793166514,
        "Eccentricity": 0.0,
        "Inclination(deg)": 45.0,
        "Latitude(deg)": -36.45512409195748,
        "Longitude(deg)": 91.78225121518444,
        "Mean Anomaly(deg)": -123.2000551882628,
        "RAAN(deg)": 324.9928131759727,
        "Satellite Name": "Constellation 1 1444",
        "Satellite Number": 1444,
        "Semi-Major Axis(m)": 7083131.272910544,
        "Time(s)": 127
    },
    {
        "Altitude(m)": 714305.3923558218,
        "Argument of Periapsis(deg)": 0.007673344799411918,
        "Eccentricity": 0.0,
        "Inclination(deg)": 45.0,
        "Latitude(deg)": -36.484253112996655,
        "Longitude(deg)": 91.84410847634173,
        "Mean Anomaly(deg)": -123.13935404801292,
        "RAAN(deg)": 324.9927565868071,
        "Satellite Name": "Constellation 1 1444",
        "Satellite Number": 1444,
        "Semi-Major Axis(m)": 7083131.272910544,
        "Time(s)": 128
    },
    {
        "Altitude(m)": 714317.2985765734,
        "Argument of Periapsis(deg)": 0.007733292805657325,
        "Eccentricity": 0.0,
        "Inclination(deg)": 45.0,
        "Latitude(deg)": -36.51334545773185,
        "Longitude(deg)": 91.90601496501522,
        "Mean Anomaly(deg)": -123.07865290776297,
        "RAAN(deg)": 324.9926999976415,
        "Satellite Name": "Constellation 1 1444",
        "Satellite Number": 1444,
        "Semi-Major Axis(m)": 7083131.272910544,
        "Time(s)": 129
    },
    {
        "Altitude(m)": 714329.1914307448,
        "Argument of Periapsis(deg)": 0.00779324081190273,
        "Eccentricity": 0.0,
        "Inclination(deg)": 45.0,
        "Latitude(deg)": -36.54240106093237,
        "Longitude(deg)": 91.96797070840317,
        "Mean Anomaly(deg)": -123.01795176751304,
        "RAAN(deg)": 324.99264340847594,
        "Satellite Name": "Constellation 1 1444",
        "Satellite Number": 1444,
        "Semi-Major Axis(m)": 7083131.272910544,
        "Time(s)": 130
    },
    {
        "Altitude(m)": 714341.0708754043,
        "Argument of Periapsis(deg)": 0.007853188818148135,
        "Eccentricity": 0.0,
        "Inclination(deg)": 45.0,
        "Latitude(deg)": -36.57141985731601,
        "Longitude(deg)": 92.02997573343941,
        "Mean Anomaly(deg)": -122.95725062726322,
        "RAAN(deg)": 324.99258681931036,
        "Satellite Name": "Constellation 1 1444",
        "Satellite Number": 1444,
        "Semi-Major Axis(m)": 7083131.272910544,
        "Time(s)": 131
    },
    {
        "Altitude(m)": 714352.9368676618,
        "Argument of Periapsis(deg)": 0.007913136824393542,
        "Eccentricity": 0.0,
        "Inclination(deg)": 45.0,
        "Latitude(deg)": -36.60040178154963,
        "Longitude(deg)": 92.09203006679297,
        "Mean Anomaly(deg)": -122.89654948701329,
        "RAAN(deg)": 324.99253023014484,
        "Satellite Name": "Constellation 1 1444",
        "Satellite Number": 1444,
        "Semi-Major Axis(m)": 7083131.272910544,
        "Time(s)": 132
    }
]